PERSEUS-M1              
1 40039U 14033AF  26165.09243411  .00001164  00000+0  11017-3 0  9995
2 40039  97.9644 109.1736 0010531 313.2965  46.7376 14.95623571650178
POLYITAN-1              
1 40042U 14033AJ  26165.31119165  .00018464  00000+0  57760-3 0  9998
2 40042  98.0938 191.3000 0008451 149.3870 210.7865 15.33167050653153
TIGRISAT                
1 40043U 14033AK  26164.94927271  .00002176  00000+0  25476-3 0  9994
2 40043  97.7824 315.0351 0050693  85.5733 275.1271 14.85151636645147
AEROCUBE 6A             
1 40045U 14033AM  26164.95109660  .00006435  00000+0  54028-3 0  9998
2 40045  97.7229 331.9340 0039155  28.9778 331.3607 14.98078813646130
AEROCUBE 6B             
1 40046U 14033AN  26165.22349068  .00005639  00000+0  45664-3 0  9999
2 40046  97.7233 331.9873 0038575  19.4866 340.7822 14.99545352646316
CANX-4                  
1 40055U 14034C   26165.24721936  .00000858  00000+0  11735-3 0  9990
2 40055  98.3126  40.4523 0013369  26.1606 334.0278 14.81259848644096
CANX-5                  
1 40056U 14034D   26165.17813680  .00000870  00000+0  11879-3 0  9994
2 40056  98.3128  40.4242 0013385  26.4954 333.6939 14.81276950634893
UKUBE-1                 
1 40074U 14037F   26165.25935160  .00008136  00000+0  45842-3 0  9994
2 40074  98.4229 168.2236 0002518 134.6803 225.4631 15.13513817648118
BRITE-PL2 (HEWELIUSZ)   
1 40119U 14049B   26165.29353093  .00001406  00000+0  13523-3 0  9994
2 40119  97.9095 277.2712 0015195 117.0513 243.2260 14.94584843641014
AEROCUBE 5C             
1 40965U 15058B   26164.68405739  .00002410  00000+0  21937-3 0  9995
2 40965  64.7679 273.4878 0130606  64.6416 296.8154 14.91439290365132
AEROCUBE 7              
1 40966U 15058C   26164.62352787  .00003277  00000+0  26787-3 0  9994
2 40966  64.7630 255.9778 0120314  63.1063 298.2287 14.95704832365427
FOX-1A (AO-85)          
1 40967U 15058D   26165.06588972  .00002476  00000+0  22792-3 0  9993
2 40967  64.7761 288.6834 0130258  57.8004 303.5661 14.90956726113100
SINOD-D 1               
1 40968U 15058E   26165.00303342  .00003470  00000+0  28236-3 0  9998
2 40968  64.7761 268.8837 0118841  54.3509 306.8602 14.95888248116180
SNAP-3 ALICE            
1 40970U 15058G   26165.28851277  .00113024  00000+0  13736-2 0  9991
2 40970  64.7497 113.9459 0028837  14.5147 345.6819 15.59474399116438
LMRST-SAT               
1 40971U 15058H   26164.61784411  .00002363  00000+0  21956-3 0  9990
2 40971  64.7766 286.4068 0131881  60.0183 301.3942 14.90575803113024
SNAP-3 EDDIE            
1 40972U 15058J   26165.15276583  .00129815  00000+0  15035-2 0  9999
2 40972  64.7423 105.1621 0028488  18.6640 341.5544 15.60680536118557
PROPCUBE 3              
1 40973U 15058K   26164.66218728  .00002930  00000+0  24855-3 0  9991
2 40973  64.7689 263.5489 0123866  61.3006 300.0491 14.94240218114271
BISONSAT                
1 40974U 15058L   26165.32881354  .00011057  00000+0  53668-3 0  9991
2 40974  64.7579 182.8861 0078756  48.4412 312.3429 15.16133566115181
SNAP-3 JIMI             
1 40975U 15058M   26165.26014829  .00004219  00000+0  29474-3 0  9990
2 40975  64.7645 229.0336 0106010  56.5656 304.5545 15.02276292113787
PROPCUBE 1 (FLORA)      
1 40976U 15058N   26165.10672714  .00002431  00000+0  23425-3 0  9991
2 40976  64.7755 304.7827 0130598  62.1260 299.3009 14.89209948115807
SINOD-D 3               
1 40977U 15058P   26165.02799473  .00003333  00000+0  28557-3 0  9998
2 40977  64.7736 285.6837 0119100  59.3834 301.8960 14.93998756114289
HORYU-4                 
1 41340U 16012D   26165.18331445  .00430944  66472-4  11344-2 0  9999
2 41340  30.9846 101.0543 0004612 251.9494 108.0665 15.93563943570337
RAVAN                   
1 41849U 16067B   26165.21143749  .00050604  00000+0  76835-3 0  9993
2 41849  97.9896  54.4417 0004830  40.1746 319.9862 15.54424943527236
CELTEE 1                
1 41850U 16067C   26165.11238251  .00005934  00000+0  28187-3 0  9990
2 41850  98.0677  31.4701 0000751 121.1330 238.9976 15.19656415525411
OPTICUBE 04             
1 41851U 16067D   26164.56625164  .00001869  00000+0  12025-3 0  9999
2 41851  98.0701  16.6614 0016779 126.7802 233.4968 15.09645471524622
AEROCUBE 8D             
1 41852U 16067E   26165.20169763  .00007512  00000+0  31002-3 0  9997
2 41852  98.0687  35.1463 0004540 130.5183 229.6448 15.24361450525611
AEROCUBE 8C             
1 41853U 16067F   26165.16154146  .00007740  00000+0  31686-3 0  9993
2 41853  98.0560  32.3349 0006722  77.4173 282.7815 15.24609042525605
CORVUS BC2              
1 42846U 17042X   26165.20549145  .00003850  00000+0  26571-3 0  9997
2 42846  97.4052 326.6713 0014195 119.8505 240.4136 15.06276912486614
CORVUS BC1              
1 42847U 17042Y   26165.26686399  .00003857  00000+0  26501-3 0  9997
2 42847  97.4086 327.5424 0013207  98.1330 262.1397 15.06448054486651
MAKERSAT 0              
1 43016U 17073D   26164.91423524  .00018871  00000+0  51447-3 0  9999
2 43016  97.4636  47.4083 0105274 284.8512  74.1088 15.31998671465964
